[{"OBJECT_ID":"2009-008D","OBJECT_NAME":"SPIRALE B","NORAD_CAT_ID":"33752","OBJECT_TYPE":"PAYLOAD","PERIOD":"540.105","INCLINATION":"1.6849","APOGEE":"30922.141","PERIGEE":"259.825","ECCENTRICITY":"0.6978504","MEAN_MOTION":"2.6661453","TLE_LINE1":"1 33752U 09008D   16237.79622155  .00003248  00000-0  87853-3 0  9994","TLE_LINE2":"2 33752   1.6849 143.6620 6978504 101.6200 337.6349  2.66614530 66898","LAUNCH_DATE":"2009-02-12","LAUNCH_SITE":"FRENCH GUIANA","OWNER":"FRANCE","ORBIT_TYPE":"Highly Elliptical Orbit","OPERATIONAL_STATUS":"Operational","satInfo":{"lng":-69.7534672641684,"lat":0.08849380331634187,"elevation":-10.093208544044586,"azimuth":24.75346726416838,"range":35962.92030694466,"height":29028.261888482313,"velocity":2.005748753091291},"x":-272,"y":-100,"dx":7,"dy":19},{"OBJECT_ID":"2009-008E","OBJECT_NAME":"ARIANE 5 DEB (SYLDA)","NORAD_CAT_ID":"33753","OBJECT_TYPE":"DEBRIS","PERIOD":"384.943","INCLINATION":"1.8025","APOGEE":"22032.216","PERIGEE":"269.622","ECCENTRICITY":"0.6207578","MEAN_MOTION":"3.74080462","TLE_LINE1":"1 33753U 09008E   16238.11755375  .00018233  00000-0  33320-2 0  9992","TLE_LINE2":"2 33753   1.8025 170.5251 6207578  45.5599 350.8183  3.74080462 79796","LAUNCH_DATE":"2009-02-12","LAUNCH_SITE":"FRENCH GUIANA","OWNER":"FRANCE","ORBIT_TYPE":"Highly Elliptical Orbit","OPERATIONAL_STATUS":"N/A, space debris","satInfo":{"lng":144.0598157617547,"lat":-0.38230617903530906,"elevation":-14.259141645408814,"azimuth":170.94018423824528,"range":26504.392346535526,"height":19310.268939957765,"velocity":2.5494829932179766},"x":113,"y":156,"dx":-21,"dy":-15},{"OBJECT_ID":"2009-009A","OBJECT_NAME":"TELSTAR 11N","NORAD_CAT_ID":"34111","OBJECT_TYPE":"PAYLOAD","PERIOD":"1436.121","INCLINATION":"0.0179","APOGEE":"35795.221","PERIGEE":"35778.937","ECCENTRICITY":"0.0001931","MEAN_MOTION":"1.00270064","TLE_LINE1":"1 34111U 09009A   16239.25845900 -.00000279  00000-0  00000+0 0  9990","TLE_LINE2":"2 34111   0.0179 135.7910 0001931  61.3013 193.3064  1.00270064 27503","LAUNCH_DATE":"2009-02-26","LAUNCH_SITE":"TYURATAM MISSILE AND SPACE COMPLEX","OWNER":"CANADA","ORBIT_TYPE":"Geosynchronous","OPERATIONAL_STATUS":"Operational","satInfo":{"lng":-40.96264317769875,"lat":-0.26817789933785563,"elevation":-8.83721720644487,"azimuth":355.96264317769874,"range":42663.14653617818,"height":35779.00806976484,"velocity":3.074974888372148},"x":-235,"y":-270,"dx":23,"dy":20},{"OBJECT_ID":"2009-016A","OBJECT_NAME":"EUTE 10A (EUTE W2A)","NORAD_CAT_ID":"34710","OBJECT_TYPE":"PAYLOAD","PERIOD":"1436.117","INCLINATION":"0.0664","APOGEE":"35807.588","PERIGEE":"35766.418","ECCENTRICITY":"0.0004882","MEAN_MOTION":"1.00270335","TLE_LINE1":"1 34710U 09016A   16238.67960090  .00000041  00000-0  00000+0 0  9992","TLE_LINE2":"2 34710   0.0664 356.5461 0004882 158.2432  74.2210  1.00270335 27040","LAUNCH_DATE":"2009-04-03","LAUNCH_SITE":"TYURATAM MISSILE AND SPACE COMPLEX","OWNER":"EUROPEAN TELECOMMUNICATIONS SATELLITE ORGANIZATION (EUTELSAT)","ORBIT_TYPE":"Geosynchronous","OPERATIONAL_STATUS":"Operational","satInfo":{"lng":9.899585005485015,"lat":0.05903407476690744,"elevation":-8.512312484538649,"azimuth":305.100414994515,"range":42653.82879622353,"height":35805.84288220162,"velocity":3.07326968368333},"x":62,"y":-353,"dx":30,"dy":-5},{"OBJECT_ID":"2009-027A","OBJECT_NAME":"SES 7 (PROTOSTAR 2)","NORAD_CAT_ID":"34941","OBJECT_TYPE":"PAYLOAD","PERIOD":"1436.094","INCLINATION":"0.0294","APOGEE":"35795.252","PERIGEE":"35777.847","ECCENTRICITY":"0.0002064","MEAN_MOTION":"1.00271953","TLE_LINE1":"1 34941U 09027A   16238.89955451 -.00000373 +00000-0 +00000-0 0  9999","TLE_LINE2":"2 34941 000.0294 075.6521 0002064 162.6303 168.3877 01.00271953026711","LAUNCH_DATE":"2009-05-16","LAUNCH_SITE":"TYURATAM MISSILE AND SPACE COMPLEX","OWNER":"SOCIÉTÉ EUROPÉENNE DES SATELLITES","ORBIT_TYPE":"Geosynchronous","OPERATIONAL_STATUS":"Operational","satInfo":{"lng":49.29972517404274,"lat":-0.7814178220449478,"elevation":-9.332550318199091,"azimuth":265.70027482595725,"range":42745.74087757128,"height":35805.72963987872,"velocity":3.0737385249025073},"x":271,"y":-233,"dx":20,"dy":-23},{"OBJECT_ID":"2009-032A","OBJECT_NAME":"MEASAT 3A","NORAD_CAT_ID":"35362","OBJECT_TYPE":"PAYLOAD","PERIOD":"1436.193","INCLINATION":"0.0369","APOGEE":"35797.894","PERIGEE":"35779.062","ECCENTRICITY":"0.0002233","MEAN_MOTION":"1.00265074","TLE_LINE1":"1 35362U 09032A   16238.35483297  .00000000  00000-0  10000-3 0  9998","TLE_LINE2":"2 35362   0.0369 222.3526 0002233 341.6319 349.2463  1.00265074 26316","LAUNCH_DATE":"2009-06-21","LAUNCH_SITE":"TYURATAM MISSILE AND SPACE COMPLEX","OWNER":"MALAYSIA","ORBIT_TYPE":"Geosynchronous","OPERATIONAL_STATUS":"Operational","satInfo":{"lng":58.83089180743743,"lat":-0.551821465047215,"elevation":-9.111022524879155,"azimuth":256.1691081925626,"range":42708.885895949286,"height":35793.86025113008,"velocity":3.074076387899927},"x":306,"y":-185,"dx":16,"dy":-26},{"OBJECT_ID":"2009-033A","OBJECT_NAME":"GOES 14","NORAD_CAT_ID":"35491","OBJECT_TYPE":"PAYLOAD","PERIOD":"1436.091","INCLINATION":"0.3753","APOGEE":"35819.417","PERIGEE":"35753.564","ECCENTRICITY":"0.0007809","MEAN_MOTION":"1.00272162","TLE_LINE1":"1 35491U 09033A   16239.36008667 -.00000120  00000-0  00000+0 0  9997","TLE_LINE2":"2 35491   0.3753 270.4492 0007809 291.1163 158.3937  1.00272162 26248","LAUNCH_DATE":"2009-06-27","LAUNCH_SITE":"AIR FORCE EASTERN TEST RANGE","OWNER":"UNITED STATES OF AMERICA","ORBIT_TYPE":"Geosynchronous","OPERATIONAL_STATUS":"Operational (spare)","satInfo":{"lng":-104.87490503406814,"lat":-0.3217214973425752,"elevation":-8.894350154235442,"azimuth":59.874905034068085,"range":42644.94410605134,"height":35754.67016531447,"velocity":3.0770075676089297},"x":-346,"y":92,"dx":-8,"dy":30},{"OBJECT_ID":"2009-034A","OBJECT_NAME":"SIRIUS FM-5","NORAD_CAT_ID":"35493","OBJECT_TYPE":"PAYLOAD","PERIOD":"1436.109","INCLINATION":"0.0157","APOGEE":"35788.217","PERIGEE":"35785.484","ECCENTRICITY":"3.24e-05","MEAN_MOTION":"1.00270879","TLE_LINE1":"1 35493U 09034A   16239.28970964 -.00000229  00000-0  00000+0 0  9999","TLE_LINE2":"2 35493   0.0157 101.3910 0000324 295.7342 315.9766  1.00270879 26059","LAUNCH_DATE":"2009-06-30","LAUNCH_SITE":"TYURATAM MISSILE AND SPACE COMPLEX","OWNER":"UNITED STATES OF AMERICA","ORBIT_TYPE":"Geosynchronous","OPERATIONAL_STATUS":"Operational","satInfo":{"lng":-101.8401482790374,"lat":0.6932722532719339,"elevation":-7.894001381603432,"azimuth":56.840148279037344,"range":42575.38010493397,"height":35796.87651636476,"velocity":3.074274465174063},"x":-350,"y":73,"dx":-6,"dy":30},{"OBJECT_ID":"2009-042A","OBJECT_NAME":"ASIASAT 5","NORAD_CAT_ID":"35696","OBJECT_TYPE":"PAYLOAD","PERIOD":"1436.125","INCLINATION":"0.0076","APOGEE":"35794.457","PERIGEE":"35779.859","ECCENTRICITY":"0.0001731","MEAN_MOTION":"1.00269783","TLE_LINE1":"1 35696U 09042A   16238.97690623 -.00000335 +00000-0 +00000-0 0  9998","TLE_LINE2":"2 35696 000.0076 184.0672 0001731 293.6575 309.1007 01.00269783025756","LAUNCH_DATE":"2009-08-11","LAUNCH_SITE":"TYURATAM MISSILE AND SPACE COMPLEX","OWNER":"ASIASAT CORP","ORBIT_TYPE":"Geosynchronous","OPERATIONAL_STATUS":"Operational","satInfo":{"lng":50.468788850068584,"lat":-0.01136280361446722,"elevation":-8.58404417315108,"azimuth":264.5312111499314,"range":42646.90686304733,"height":35791.03942518311,"velocity":3.0745060352890277},"x":276,"y":-228,"dx":20,"dy":-24},{"OBJECT_ID":"2009-044A","OBJECT_NAME":"JCSAT 12","NORAD_CAT_ID":"35755","OBJECT_TYPE":"PAYLOAD","PERIOD":"1436.031","INCLINATION":"0.0245","APOGEE":"35810.029","PERIGEE":"35760.605","ECCENTRICITY":"0.0005861","MEAN_MOTION":"1.00276349","TLE_LINE1":"1 35755U 09044A   16238.90252565  .00000000  00000-0  10000-3 0  9990","TLE_LINE2":"2 35755   0.0245  28.0313 0005861 291.9314 107.4948  1.00276349 25747","LAUNCH_DATE":"2009-08-21","LAUNCH_SITE":"FRENCH GUIANA","OWNER":"JAPAN","ORBIT_TYPE":"Geosynchronous","OPERATIONAL_STATUS":"Backup/Standby","satInfo":{"lng":113.01459081550921,"lat":0.9931570962931856,"elevation":-7.596350135104547,"azimuth":201.9854091844908,"range":42562.609084617514,"height":35817.273566316195,"velocity":3.0731240148614787},"x":330,"y":140,"dx":-12,"dy":-28},{"OBJECT_ID":"2009-044B","OBJECT_NAME":"OPTUS D3","NORAD_CAT_ID":"35756","OBJECT_TYPE":"PAYLOAD","PERIOD":"1436.176","INCLINATION":"0.0399","APOGEE":"35798.971","PERIGEE":"35777.356","ECCENTRICITY":"0.0002563","MEAN_MOTION":"1.00266195","TLE_LINE1":"1 35756U 09044B   16238.69646267  .00000000  00000-0  10000-3 0  9993","TLE_LINE2":"2 35756   0.0399 353.0742 0002563 163.0726 224.9107  1.00266195 25714","LAUNCH_DATE":"2009-08-21","LAUNCH_SITE":"FRENCH GUIANA","OWNER":"AUSTRALIA","ORBIT_TYPE":"Geosynchronous","OPERATIONAL_STATUS":"Operational","satInfo":{"lng":-143.58463489285393,"lat":-0.2791395522984593,"elevation":-8.842850744902789,"azimuth":98.58463489285386,"range":42689.398410881804,"height":35804.34204852008,"velocity":3.074385436787},"x":-213,"y":288,"dx":-25,"dy":18},{"OBJECT_ID":"2009-044C","OBJECT_NAME":"ARIANE 5 R/B","NORAD_CAT_ID":"35757","OBJECT_TYPE":"ROCKET BODY","PERIOD":"599.077","INCLINATION":"1.73","APOGEE":"34072.678","PERIGEE":"252.059","ECCENTRICITY":"0.7183495","MEAN_MOTION":"2.40369373","TLE_LINE1":"1 35757U 09044C   16238.07918988 +.00001576 +00000-0 +51747-3 0  9990","TLE_LINE2":"2 35757 001.7300 121.3059 7183495 197.5431 111.8167 02.40369373059947","LAUNCH_DATE":"2009-08-21","LAUNCH_SITE":"FRENCH GUIANA","OWNER":"FRANCE","ORBIT_TYPE":"Highly Elliptical Orbit","OPERATIONAL_STATUS":"N/A, derelict rocket body","satInfo":{"lng":-41.92283481045317,"lat":-1.5717168015110539,"elevation":-12.837610818945791,"azimuth":356.9228348104532,"range":32521.920019512818,"height":25342.773860610236,"velocity":2.826815615544976},"x":-169,"y":-189,"dx":21,"dy":19}]